[Satellite]
VERSION=1.1
NAME=KAITUO 1A
NICKNAME=KAITUO 1A
TLE1=1 40904U 15049F   19317.89970303  .00000533  00000-0  31575-4 0  9992
TLE2=2 40904  97.4715 317.4182 0016046  57.7298   3.9440 15.15500930229443
STATUS=0
